{"type": "FeatureCollection", "features": [ {"type": "Feature", "properties": {"norad_id": 66545, "name": "SHIJIAN-30A", "group": "last-30-days", "lat": 19.829309646184925, "lon": -33.295092242381514, "alt_km": 508.35523351864504, "timestamp": "2025-12-17T13:48:36.278661+00:00", "meta": {"OBJECT_NAME": "SHIJIAN-30A", "OBJECT_ID": "2025-266A", "EPOCH": "2025-12-17T07:22:03.536832", "MEAN_MOTION": 15.15552248, "ECCENTRICITY": 0.00130121, "INCLINATION": 51.7991, "RA_OF_ASC_NODE": 311.4656, "ARG_OF_PERICENTER": 12.6443, "MEAN_ANOMALY": 347.4857, "EPHEMERIS_TYPE": 0, "CLASSIFICATION_TYPE": "U", "NORAD_CAT_ID": 66545, "ELEMENT_SET_NO": 999, "REV_AT_EPOCH": 427, "BSTAR": 0.00052915066, "MEAN_MOTION_DOT": 9.884e-05, "MEAN_MOTION_DDOT": 0}, "tle": {"line1": "1 66545U 25266A   25351.30698538  .00009884  00000+0  52915-3 0  9998", "line2": "2 66545  51.7991 311.4656 0013012  12.6443 347.4857 15.15552248  4272"}}, "geometry": {"type": "Point", "coordinates": [-33.295092242381514, 19.829309646184925]}}, {"type": "Feature", "properties": {"norad_id": 66546, "name": "SHIJIAN-30B", "group": "last-30-days", "lat": 14.734866144413509, "lon": -37.82942106007712, "alt_km": 510.598545459, "timestamp": "2025-12-17T13:48:36.278672+00:00", "meta": {"OBJECT_NAME": "SHIJIAN-30B", "OBJECT_ID": "2025-266B", "EPOCH": "2025-12-17T07:23:48.622560", "MEAN_MOTION": 15.15531439, "ECCENTRICITY": 0.00107202, "INCLINATION": 51.7975, "RA_OF_ASC_NODE": 311.4693, "ARG_OF_PERICENTER": 15.9526, "MEAN_ANOMALY": 344.1786, "EPHEMERIS_TYPE": 0, "CLASSIFICATION_TYPE": "U", "NORAD_CAT_ID": 66546, "ELEMENT_SET_NO": 999, "REV_AT_EPOCH": 427, "BSTAR": 0.00058931854, "MEAN_MOTION_DOT": 0.00011032, "MEAN_MOTION_DDOT": 0}, "tle": {"line1": "1 66546U 25266B   25351.30820165  .00011032  00000+0  58932-3 0  9995", "line2": "2 66546  51.7975 311.4693 0010720  15.9526 344.1786 15.15531439  4271"}}, "geometry": {"type": "Point", "coordinates": [-37.82942106007712, 14.734866144413509]}}, {"type": "Feature", "properties": {"norad_id": 66547, "name": "SHIJIAN-30C", "group": "last-30-days", "lat": 12.313545909686203, "lon": -39.876215492813856, "alt_km": 510.59312168659926, "timestamp": "2025-12-17T13:48:36.278682+00:00", "meta": {"OBJECT_NAME": "SHIJIAN-30C", "OBJECT_ID": "2025-266C", "EPOCH": "2025-12-17T07:24:37.343520", "MEAN_MOTION": 15.15474589, "ECCENTRICITY": 0.00115993, "INCLINATION": 51.7985, "RA_OF_ASC_NODE": 311.475, "ARG_OF_PERICENTER": 7.7149, "MEAN_ANOMALY": 352.4004, "EPHEMERIS_TYPE": 0, "CLASSIFICATION_TYPE": "U", "NORAD_CAT_ID": 66547, "ELEMENT_SET_NO": 999, "REV_AT_EPOCH": 427, "BSTAR": 0.00052877618, "MEAN_MOTION_DOT": 9.85e-05, "MEAN_MOTION_DDOT": 0}, "tle": {"line1": "1 66547U 25266C   25351.30876555  .00009850  00000+0  52878-3 0  9998", "line2": "2 66547  51.7985 311.4750 0011599   7.7149 352.4004 15.15474589  4279"}}, "geometry": {"type": "Point", "coordinates": [-39.876215492813856, 12.313545909686203]}}, {"type": "Feature", "properties": {"norad_id": 66548, "name": "CZ-2C R/B", "group": "last-30-days", "lat": 40.79182406463062, "lon": -9.435820099821614, "alt_km": 508.9042249802533, "timestamp": "2025-12-17T13:48:36.278692+00:00", "meta": {"OBJECT_NAME": "CZ-2C R/B", "OBJECT_ID": "2025-266D", "EPOCH": "2025-12-17T07:17:36.671424", "MEAN_MOTION": 15.30275608, "ECCENTRICITY": 0.00836977, "INCLINATION": 52.0549, "RA_OF_ASC_NODE": 309.5334, "ARG_OF_PERICENTER": 188.8252, "MEAN_ANOMALY": 171.1267, "EPHEMERIS_TYPE": 0, "CLASSIFICATION_TYPE": "U", "NORAD_CAT_ID": 66548, "ELEMENT_SET_NO": 999, "REV_AT_EPOCH": 431, "BSTAR": 0.00030845809, "MEAN_MOTION_DOT": 9.809e-05, "MEAN_MOTION_DDOT": 0}, "tle": {"line1": "1 66548U 25266D   25351.30389666  .00009809  00000+0  30846-3 0  9996", "line2": "2 66548  52.0549 309.5334 0083697 188.8252 171.1267 15.30275608  4310"}}, "geometry": {"type": "Point", "coordinates": [-9.435820099821614, 40.79182406463062]}}, {"type": "Feature", "properties": {"norad_id": 66549, "name": "SHIJIAN-28", "group": "last-30-days", "lat": 3.5294911131319058, "lon": 50.53091509224063, "alt_km": 35781.993938496635, "timestamp": "2025-12-17T13:48:36.278707+00:00", "meta": {"OBJECT_NAME": "SHIJIAN-28", "OBJECT_ID": "2025-277A", "EPOCH": "2025-12-17T05:19:16.086144", "MEAN_MOTION": 1.0027008, "ECCENTRICITY": 9.86e-05, "INCLINATION": 5.0075, "RA_OF_ASC_NODE": 274.8866, "ARG_OF_PERICENTER": 135.8256, "MEAN_ANOMALY": 232.0522, "EPHEMERIS_TYPE": 0, "CLASSIFICATION_TYPE": "U", "NORAD_CAT_ID": 66549, "ELEMENT_SET_NO": 999, "REV_AT_EPOCH": 33, "BSTAR": 0, "MEAN_MOTION_DOT": -3.3e-06, "MEAN_MOTION_DDOT": 0}, "tle": {"line1": "1 66549U 25277A   25351.22171396 -.00000330  00000+0  00000+0 0  9995", "line2": "2 66549   5.0075 274.8866 0000986 135.8256 232.0522  1.00270080   333"}}, "geometry": {"type": "Point", "coordinates": [50.53091509224063, 3.5294911131319058]}}, {"type": "Feature", "properties": {"norad_id": 66550, "name": "CZ-7A R/B", "group": "last-30-days", "lat": -8.306964492274135, "lon": -127.30795906785752, "alt_km": 13623.30771290731, "timestamp": "2025-12-17T13:48:36.278719+00:00", "meta": {"OBJECT_NAME": "CZ-7A R/B", "OBJECT_ID": "2025-277B", "EPOCH": "2025-12-12T23:59:46.063680", "MEAN_MOTION": 2.69999213, "ECCENTRICITY": 0.70164962, "INCLINATION": 14.3833, "RA_OF_ASC_NODE": 269.7494, "ARG_OF_PERICENTER": 189.2871, "MEAN_ANOMALY": 143.2042, "EPHEMERIS_TYPE": 0, "CLASSIFICATION_TYPE": "U", "NORAD_CAT_ID": 66550, "ELEMENT_SET_NO": 999, "REV_AT_EPOCH": 35, "BSTAR": 0.0022608485, "MEAN_MOTION_DOT": 0.01807848, "MEAN_MOTION_DDOT": -2.55676e-07}, "tle": {"line1": "1 66550U 25277B   25346.99983870  .01807848 -25568-6  22608-2 0  9997", "line2": "2 66550  14.3833 269.7494 7016496 189.2871 143.2042  2.69999213   350"}}, "geometry": {"type": "Point", "coordinates": [-127.30795906785752, -8.306964492274135]}}, {"type": "Feature", "properties": {"norad_id": 66554, "name": "GLOBAL-33", "group": "last-30-days", "lat": 36.86908952901857, "lon": 152.6786031685149, "alt_km": 462.4297389578387, "timestamp": "2025-12-17T13:48:36.278741+00:00", "meta": {"OBJECT_NAME": "GLOBAL-33", "OBJECT_ID": "2025-267A", "EPOCH": "2025-12-16T06:00:18.289152", "MEAN_MOTION": 15.31623856, "ECCENTRICITY": 0.00037572, "INCLINATION": 42.0219, "RA_OF_ASC_NODE": 36.7279, "ARG_OF_PERICENTER": 92.6131, "MEAN_ANOMALY": 267.5137, "EPHEMERIS_TYPE": 0, "CLASSIFICATION_TYPE": "U", "NORAD_CAT_ID": 66554, "ELEMENT_SET_NO": 999, "REV_AT_EPOCH": 394, "BSTAR": 0.00030439527, "MEAN_MOTION_DOT": 9.257e-05, "MEAN_MOTION_DDOT": 0}, "tle": {"line1": "1 66554U 25267A   25350.25021168  .00009257  00000+0  30440-3 0  9994", "line2": "2 66554  42.0219  36.7279 0003757  92.6131 267.5137 15.31623856  3941"}}, "geometry": {"type": "Point", "coordinates": [152.6786031685149, 36.86908952901857]}}, {"type": "Feature", "properties": {"norad_id": 66555, "name": "ELECTRON KICK STAGE R/B", "group": "last-30-days", "lat": -16.335964773582376, "lon": -132.14025786049362, "alt_km": 469.96948188634906, "timestamp": "2025-12-17T13:48:36.278752+00:00", "meta": {"OBJECT_NAME": "ELECTRON KICK STAGE R/B", "OBJECT_ID": "2025-267B", "EPOCH": "2025-12-17T08:13:51.370752", "MEAN_MOTION": 15.33033306, "ECCENTRICITY": 0.00066844, "INCLINATION": 42.0197, "RA_OF_ASC_NODE": 30.2077, "ARG_OF_PERICENTER": 91.1186, "MEAN_ANOMALY": 269.0418, "EPHEMERIS_TYPE": 0, "CLASSIFICATION_TYPE": "U", "NORAD_CAT_ID": 66555, "ELEMENT_SET_NO": 999, "REV_AT_EPOCH": 411, "BSTAR": 0.00063009598, "MEAN_MOTION_DOT": 0.0002036, "MEAN_MOTION_DDOT": 0}, "tle": {"line1": "1 66555U 25267B   25351.34295568  .00020360  00000+0  63010-3 0  9990", "line2": "2 66555  42.0197  30.2077 0006684  91.1186 269.0418 15.33033306  4114"}}, "geometry": {"type": "Point", "coordinates": [-132.14025786049362, -16.335964773582376]}}, {"type": "Feature", "properties": {"norad_id": 66557, "name": "STARLINK-35699", "group": "last-30-days", "lat": 34.27557537221904, "lon": -134.08185297082863, "alt_km": 410.3463555331109, "timestamp": "2025-12-17T13:48:36.278762+00:00", "meta": {"OBJECT_NAME": "STARLINK-35699", "OBJECT_ID": "2025-268A", "EPOCH": "2025-12-17T07:05:35.152800", "MEAN_MOTION": 15.50596272, "ECCENTRICITY": 0.00017841, "INCLINATION": 43.0005, "RA_OF_ASC_NODE": 94.5563, "ARG_OF_PERICENTER": 268.7939, "MEAN_ANOMALY": 91.2717, "EPHEMERIS_TYPE": 0, "CLASSIFICATION_TYPE": "U", "NORAD_CAT_ID": 66557, "ELEMENT_SET_NO": 999, "REV_AT_EPOCH": 533, "BSTAR": 0.0018914815, "MEAN_MOTION_DOT": 0.00112298, "MEAN_MOTION_DDOT": 0}, "tle": {"line1": "1 66557U 25268A   25351.29554575  .00112298  00000+0  18915-2 0  9998", "line2": "2 66557  43.0005  94.5563 0001784 268.7939  91.2717 15.50596272  5339"}}, "geometry": {"type": "Point", "coordinates": [-134.08185297082863, 34.27557537221904]}}, {"type": "Feature", "properties": {"norad_id": 66558, "name": "STARLINK-35695", "group": "last-30-days", "lat": 33.30878952827555, "lon": -131.92465779587351, "alt_km": 411.7767262090674, "timestamp": "2025-12-17T13:48:36.278773+00:00", "meta": {"OBJECT_NAME": "STARLINK-35695", "OBJECT_ID": "2025-268B", "EPOCH": "2025-12-16T14:04:46.727616", "MEAN_MOTION": 15.50585399, "ECCENTRICITY": 0.0003941, "INCLINATION": 43.0027, "RA_OF_ASC_NODE": 98.6973, "ARG_OF_PERICENTER": 278.2964, "MEAN_ANOMALY": 81.745, "EPHEMERIS_TYPE": 0, "CLASSIFICATION_TYPE": "U", "NORAD_CAT_ID": 66558, "ELEMENT_SET_NO": 999, "REV_AT_EPOCH": 522, "BSTAR": 0.0011942178, "MEAN_MOTION_DOT": 0.0007038, "MEAN_MOTION_DDOT": 0}, "tle": {"line1": "1 66558U 25268B   25350.58665194  .00070380  00000+0  11942-2 0  9998", "line2": "2 66558  43.0027  98.6973 0003941 278.2964  81.7450 15.50585399  5229"}}, "geometry": {"type": "Point", "coordinates": [-131.92465779587351, 33.30878952827555]}}]}